[
  {
    "OBJECT_NAME": "STARLINK-4057",
    "OBJECT_ID": "22086AD",
    "EPOCH": "2025-11-11T06:33:32.891904",
    "MEAN_MOTION": 15.08839897,
    "ECCENTRICITY": 0.0001431,
    "INCLINATION": 53.218,
    "RA_OF_ASC_NODE": 355.7094,
    "ARG_OF_PERICENTER": 95.6757,
    "MEAN_ANOMALY": 264.4398,
    "EPHEMERIS_TYPE": 0,
    "CLASSIFICATION_TYPE": "U",
    "NORAD_CAT_ID": 53269,
    "ELEMENT_SET_NO": 999,
    "REV_AT_EPOCH": 18332,
    "BSTAR": 2.1177e-05,
    "MEAN_MOTION_DOT": 4.9e-07,
    "MEAN_MOTION_DDOT": 0.0,
    "TLE_LINE1": "1 53269U 22086AD  25315.27329736  .00000049  00000+0  21177-4 0  9992",
    "TLE_LINE2": "2 53269  53.2180 355.7094 0001431  95.6757 264.4398 15.08839897183328",
    "COMMENT": "Grouped by shell and plane from TLE"
  },
  {
    "OBJECT_NAME": "STARLINK-4122",
    "OBJECT_ID": "22086AG",
    "EPOCH": "2025-11-11T06:38:50.607168",
    "MEAN_MOTION": 15.08842839,
    "ECCENTRICITY": 0.0001372,
    "INCLINATION": 53.2183,
    "RA_OF_ASC_NODE": 355.6959,
    "ARG_OF_PERICENTER": 85.998,
    "MEAN_ANOMALY": 274.1169,
    "EPHEMERIS_TYPE": 0,
    "CLASSIFICATION_TYPE": "U",
    "NORAD_CAT_ID": 53272,
    "ELEMENT_SET_NO": 999,
    "REV_AT_EPOCH": 18332,
    "BSTAR": 9.828e-05,
    "MEAN_MOTION_DOT": 1.277e-05,
    "MEAN_MOTION_DDOT": 0.0,
    "TLE_LINE1": "1 53272U 22086AG  25315.27697462  .00001277  00000+0  98280-4 0  9993",
    "TLE_LINE2": "2 53272  53.2183 355.6959 0001372  85.9980 274.1169 15.08842839183322",
    "COMMENT": "Grouped by shell and plane from TLE"
  },
  {
    "OBJECT_NAME": "STARLINK-4051",
    "OBJECT_ID": "22086AH",
    "EPOCH": "2025-11-11T06:12:21.149568",
    "MEAN_MOTION": 15.08843287,
    "ECCENTRICITY": 0.0001225,
    "INCLINATION": 53.2172,
    "RA_OF_ASC_NODE": 355.7781,
    "ARG_OF_PERICENTER": 91.8011,
    "MEAN_ANOMALY": 268.3122,
    "EPHEMERIS_TYPE": 0,
    "CLASSIFICATION_TYPE": "U",
    "NORAD_CAT_ID": 53273,
    "ELEMENT_SET_NO": 999,
    "REV_AT_EPOCH": 18331,
    "BSTAR": 0.00026172,
    "MEAN_MOTION_DOT": 3.88e-05,
    "MEAN_MOTION_DDOT": 0.0,
    "TLE_LINE1": "1 53273U 22086AH  25315.25857812  .00003880  00000+0  26172-3 0  9991",
    "TLE_LINE2": "2 53273  53.2172 355.7781 0001225  91.8011 268.3122 15.08843287183314",
    "COMMENT": "Grouped by shell and plane from TLE"
  },
  {
    "OBJECT_NAME": "STARLINK-4050",
    "OBJECT_ID": "22086AJ",
    "EPOCH": "2025-11-11T06:28:14.945952",
    "MEAN_MOTION": 15.0884004,
    "ECCENTRICITY": 0.000149,
    "INCLINATION": 53.218,
    "RA_OF_ASC_NODE": 355.7258,
    "ARG_OF_PERICENTER": 101.6564,
    "MEAN_ANOMALY": 258.4596,
    "EPHEMERIS_TYPE": 0,
    "CLASSIFICATION_TYPE": "U",
    "NORAD_CAT_ID": 53274,
    "ELEMENT_SET_NO": 999,
    "REV_AT_EPOCH": 18332,
    "BSTAR": 1.8399e-05,
    "MEAN_MOTION_DOT": 5e-08,
    "MEAN_MOTION_DDOT": 0.0,
    "TLE_LINE1": "1 53274U 22086AJ  25315.26961743  .00000005  00000+0  18399-4 0  9991",
    "TLE_LINE2": "2 53274  53.2180 355.7258 0001490 101.6564 258.4596 15.08840040183320",
    "COMMENT": "Grouped by shell and plane from TLE"
  },
  {
    "OBJECT_NAME": "STARLINK-4179",
    "OBJECT_ID": "22086AK",
    "EPOCH": "2025-11-11T06:07:03.328032",
    "MEAN_MOTION": 15.08847147,
    "ECCENTRICITY": 0.0001378,
    "INCLINATION": 53.2189,
    "RA_OF_ASC_NODE": 355.7956,
    "ARG_OF_PERICENTER": 91.2127,
    "MEAN_ANOMALY": 268.9023,
    "EPHEMERIS_TYPE": 0,
    "CLASSIFICATION_TYPE": "U",
    "NORAD_CAT_ID": 53275,
    "ELEMENT_SET_NO": 999,
    "REV_AT_EPOCH": 18331,
    "BSTAR": 6.1178e-06,
    "MEAN_MOTION_DOT": -1.91e-06,
    "MEAN_MOTION_DDOT": 0.0,
    "TLE_LINE1": "1 53275U 22086AK  25315.25489963 -.00000191  00000+0  61178-5 0  9991",
    "TLE_LINE2": "2 53275  53.2189 355.7956 0001378  91.2127 268.9023 15.08847147183314",
    "COMMENT": "Grouped by shell and plane from TLE"
  },
  {
    "OBJECT_NAME": "STARLINK-4174",
    "OBJECT_ID": "22086AL",
    "EPOCH": "2025-11-11T06:17:38.809536",
    "MEAN_MOTION": 15.08839951,
    "ECCENTRICITY": 0.0001272,
    "INCLINATION": 53.2163,
    "RA_OF_ASC_NODE": 355.7605,
    "ARG_OF_PERICENTER": 86.0769,
    "MEAN_ANOMALY": 274.0369,
    "EPHEMERIS_TYPE": 0,
    "CLASSIFICATION_TYPE": "U",
    "NORAD_CAT_ID": 53276,
    "ELEMENT_SET_NO": 999,
    "REV_AT_EPOCH": 18331,
    "BSTAR": 4.9206e-05,
    "MEAN_MOTION_DOT": 4.95e-06,
    "MEAN_MOTION_DDOT": 0.0,
    "TLE_LINE1": "1 53276U 22086AL  25315.26225474  .00000495  00000+0  49206-4 0  9991",
    "TLE_LINE2": "2 53276  53.2163 355.7605 0001272  86.0769 274.0369 15.08839951183310",
    "COMMENT": "Grouped by shell and plane from TLE"
  },
  {
    "OBJECT_NAME": "STARLINK-4178",
    "OBJECT_ID": "22086AM",
    "EPOCH": "2025-11-11T02:45:41.339520",
    "MEAN_MOTION": 15.08840981,
    "ECCENTRICITY": 0.0001533,
    "INCLINATION": 53.2184,
    "RA_OF_ASC_NODE": 356.4516,
    "ARG_OF_PERICENTER": 80.2832,
    "MEAN_ANOMALY": 279.8333,
    "EPHEMERIS_TYPE": 0,
    "CLASSIFICATION_TYPE": "U",
    "NORAD_CAT_ID": 53277,
    "ELEMENT_SET_NO": 999,
    "REV_AT_EPOCH": 18329,
    "BSTAR": 9.3638e-06,
    "MEAN_MOTION_DOT": -1.39e-06,
    "MEAN_MOTION_DDOT": 0.0,
    "TLE_LINE1": "1 53277U 22086AM  25315.11506180 -.00000139  00000+0  93638-5 0  9997",
    "TLE_LINE2": "2 53277  53.2184 356.4516 0001533  80.2832 279.8333 15.08840981183296",
    "COMMENT": "Grouped by shell and plane from TLE"
  },
  {
    "OBJECT_NAME": "STARLINK-4180",
    "OBJECT_ID": "22086AN",
    "EPOCH": "2025-11-11T02:50:58.989120",
    "MEAN_MOTION": 15.08841799,
    "ECCENTRICITY": 0.0001458,
    "INCLINATION": 53.2176,
    "RA_OF_ASC_NODE": 356.4078,
    "ARG_OF_PERICENTER": 93.9713,
    "MEAN_ANOMALY": 266.1446,
    "EPHEMERIS_TYPE": 0,
    "CLASSIFICATION_TYPE": "U",
    "NORAD_CAT_ID": 53278,
    "ELEMENT_SET_NO": 999,
    "REV_AT_EPOCH": 18329,
    "BSTAR": 0.00010904,
    "MEAN_MOTION_DOT": 1.448e-05,
    "MEAN_MOTION_DDOT": 0.0,
    "TLE_LINE1": "1 53278U 22086AN  25315.11873830  .00001448  00000+0  10904-3 0  9993",
    "TLE_LINE2": "2 53278  53.2176 356.4078 0001458  93.9713 266.1446 15.08841799183298",
    "COMMENT": "Grouped by shell and plane from TLE"
  },
  {
    "OBJECT_NAME": "STARLINK-4164",
    "OBJECT_ID": "22086AS",
    "EPOCH": "2025-11-11T07:26:32.462880",
    "MEAN_MOTION": 15.08848372,
    "ECCENTRICITY": 0.0001574,
    "INCLINATION": 53.2187,
    "RA_OF_ASC_NODE": 355.5489,
    "ARG_OF_PERICENTER": 83.4137,
    "MEAN_ANOMALY": 276.7034,
    "EPHEMERIS_TYPE": 0,
    "CLASSIFICATION_TYPE": "U",
    "NORAD_CAT_ID": 53282,
    "ELEMENT_SET_NO": 999,
    "REV_AT_EPOCH": 18332,
    "BSTAR": 0.0,
    "MEAN_MOTION_DOT": -7.11e-06,
    "MEAN_MOTION_DDOT": 0.0,
    "TLE_LINE1": "1 53282U 22086AS  25315.31009795 -.00000711  00000+0 -26571-4 0  9993",
    "TLE_LINE2": "2 53282  53.2187 355.5489 0001574  83.4137 276.7034 15.08848372183322",
    "COMMENT": "Grouped by shell and plane from TLE"
  },
  {
    "OBJECT_NAME": "STARLINK-4175",
    "OBJECT_ID": "22086AT",
    "EPOCH": "2025-11-11T07:10:38.832384",
    "MEAN_MOTION": 15.08842423,
    "ECCENTRICITY": 0.0001434,
    "INCLINATION": 53.22,
    "RA_OF_ASC_NODE": 355.5975,
    "ARG_OF_PERICENTER": 90.6317,
    "MEAN_ANOMALY": 269.4839,
    "EPHEMERIS_TYPE": 0,
    "CLASSIFICATION_TYPE": "U",
    "NORAD_CAT_ID": 53283,
    "ELEMENT_SET_NO": 999,
    "REV_AT_EPOCH": 18332,
    "BSTAR": 6.0162000000000004e-05,
    "MEAN_MOTION_DOT": 6.7e-06,
    "MEAN_MOTION_DDOT": 0.0,
    "TLE_LINE1": "1 53283U 22086AT  25315.29906056  .00000670  00000+0  60162-4 0  9993",
    "TLE_LINE2": "2 53283  53.2200 355.5975 0001434  90.6317 269.4839 15.08842423183327",
    "COMMENT": "Grouped by shell and plane from TLE"
  },
  {
    "OBJECT_NAME": "STARLINK-4173",
    "OBJECT_ID": "22086AV",
    "EPOCH": "2025-11-11T06:54:44.478720",
    "MEAN_MOTION": 15.08845221,
    "ECCENTRICITY": 0.0001421,
    "INCLINATION": 53.2186,
    "RA_OF_ASC_NODE": 355.6451,
    "ARG_OF_PERICENTER": 102.1957,
    "MEAN_ANOMALY": 257.9194,
    "EPHEMERIS_TYPE": 0,
    "CLASSIFICATION_TYPE": "U",
    "NORAD_CAT_ID": 53285,
    "ELEMENT_SET_NO": 999,
    "REV_AT_EPOCH": 18331,
    "BSTAR": 8.965600000000001e-05,
    "MEAN_MOTION_DOT": 1.139e-05,
    "MEAN_MOTION_DDOT": 0.0,
    "TLE_LINE1": "1 53285U 22086AV  25315.28801480  .00001139  00000+0  89656-4 0  9999",
    "TLE_LINE2": "2 53285  53.2186 355.6451 0001421 102.1957 257.9194 15.08845221183311",
    "COMMENT": "Grouped by shell and plane from TLE"
  },
  {
    "OBJECT_NAME": "STARLINK-4165",
    "OBJECT_ID": "22086AW",
    "EPOCH": "2025-11-11T06:22:53.672736",
    "MEAN_MOTION": 15.08843849,
    "ECCENTRICITY": 0.000133,
    "INCLINATION": 53.2168,
    "RA_OF_ASC_NODE": 355.4365,
    "ARG_OF_PERICENTER": 90.6435,
    "MEAN_ANOMALY": 269.471,
    "EPHEMERIS_TYPE": 0,
    "CLASSIFICATION_TYPE": "U",
    "NORAD_CAT_ID": 53286,
    "ELEMENT_SET_NO": 999,
    "REV_AT_EPOCH": 18331,
    "BSTAR": 0.00015168,
    "MEAN_MOTION_DOT": 2.127e-05,
    "MEAN_MOTION_DDOT": 0.0,
    "TLE_LINE1": "1 53286U 22086AW  25315.26589899  .00002127  00000+0  15168-3 0  9999",
    "TLE_LINE2": "2 53286  53.2168 355.4365 0001330  90.6435 269.4710 15.08843849183311",
    "COMMENT": "Grouped by shell and plane from TLE"
  },
  {
    "OBJECT_NAME": "STARLINK-4107",
    "OBJECT_ID": "22086AX",
    "EPOCH": "2025-11-11T06:44:09.097440",
    "MEAN_MOTION": 15.08836711,
    "ECCENTRICITY": 0.0001356,
    "INCLINATION": 53.2181,
    "RA_OF_ASC_NODE": 355.6779,
    "ARG_OF_PERICENTER": 85.3316,
    "MEAN_ANOMALY": 274.7831,
    "EPHEMERIS_TYPE": 0,
    "CLASSIFICATION_TYPE": "U",
    "NORAD_CAT_ID": 53287,
    "ELEMENT_SET_NO": 999,
    "REV_AT_EPOCH": 18331,
    "BSTAR": 6.8935e-05,
    "MEAN_MOTION_DOT": 8.09e-06,
    "MEAN_MOTION_DDOT": 0.0,
    "TLE_LINE1": "1 53287U 22086AX  25315.28066085  .00000809  00000+0  68935-4 0  9995",
    "TLE_LINE2": "2 53287  53.2181 355.6779 0001356  85.3316 274.7831 15.08836711183318",
    "COMMENT": "Grouped by shell and plane from TLE"
  }
]